CCSDS_OMM_VERS = 2.0
CREATION_DATE  = 
ORIGINATOR     = 

OBJECT_NAME    = STARLINK-35610
OBJECT_ID      = 2025-259G
CENTER_NAME    = EARTH
REF_FRAME      = TEME
TIME_SYSTEM    = UTC
MEAN_ELEMENT_THEORY = SGP/SGP4

EPOCH          = 2025-11-30T14:00:01.999872
MEAN_MOTION    = 15.57303637
ECCENTRICITY   = .00016575
INCLINATION    = 42.9991
RA_OF_ASC_NODE = 118.4584
ARG_OF_PERICENTER = 269.4805
MEAN_ANOMALY   = 82.3852

EPHEMERIS_TYPE = 0
CLASSIFICATION_TYPE = U
NORAD_CAT_ID   = 66428
ELEMENT_SET_NO = 999
REV_AT_EPOCH   = 432
BSTAR          = -.31315464E-1
MEAN_MOTION_DOT = -.2091865E-1
MEAN_MOTION_DDOT = 0

CCSDS_OMM_VERS = 2.0
CREATION_DATE  = 
ORIGINATOR     = 

OBJECT_NAME    = STARLINK-35533
OBJECT_ID      = 2025-259H
CENTER_NAME    = EARTH
REF_FRAME      = TEME
TIME_SYSTEM    = UTC
MEAN_ELEMENT_THEORY = SGP/SGP4

EPOCH          = 2025-11-30T14:00:01.999872
MEAN_MOTION    = 15.57302196
ECCENTRICITY   = .00016267
INCLINATION    = 42.9989
RA_OF_ASC_NODE = 118.4522
ARG_OF_PERICENTER = 270.8803
MEAN_ANOMALY   = 82.9008

EPHEMERIS_TYPE = 0
CLASSIFICATION_TYPE = U
NORAD_CAT_ID   = 66429
ELEMENT_SET_NO = 999
REV_AT_EPOCH   = 432
BSTAR          = -.31235078E-1
MEAN_MOTION_DOT = -.2086958E-1
MEAN_MOTION_DDOT = 0

CCSDS_OMM_VERS = 2.0
CREATION_DATE  = 
ORIGINATOR     = 

OBJECT_NAME    = STARLINK-35470
OBJECT_ID      = 2025-259J
CENTER_NAME    = EARTH
REF_FRAME      = TEME
TIME_SYSTEM    = UTC
MEAN_ELEMENT_THEORY = SGP/SGP4

EPOCH          = 2025-11-30T14:00:01.999872
MEAN_MOTION    = 15.57293299
ECCENTRICITY   = .00016945
INCLINATION    = 42.9988
RA_OF_ASC_NODE = 118.4489
ARG_OF_PERICENTER = 269.7494
MEAN_ANOMALY   = 85.9540

EPHEMERIS_TYPE = 0
CLASSIFICATION_TYPE = U
NORAD_CAT_ID   = 66430
ELEMENT_SET_NO = 999
REV_AT_EPOCH   = 432
BSTAR          = -.3104667E-1
MEAN_MOTION_DOT = -.2075156E-1
MEAN_MOTION_DDOT = 0

CCSDS_OMM_VERS = 2.0
CREATION_DATE  = 
ORIGINATOR     = 

OBJECT_NAME    = STARLINK-35439
OBJECT_ID      = 2025-259K
CENTER_NAME    = EARTH
REF_FRAME      = TEME
TIME_SYSTEM    = UTC
MEAN_ELEMENT_THEORY = SGP/SGP4

EPOCH          = 2025-11-30T14:00:01.999872
MEAN_MOTION    = 15.57295423
ECCENTRICITY   = .00017081
INCLINATION    = 42.9990
RA_OF_ASC_NODE = 118.4429
ARG_OF_PERICENTER = 270.8692
MEAN_ANOMALY   = 86.7491

EPHEMERIS_TYPE = 0
CLASSIFICATION_TYPE = U
NORAD_CAT_ID   = 66431
ELEMENT_SET_NO = 999
REV_AT_EPOCH   = 432
BSTAR          = -.31065224E-1
MEAN_MOTION_DOT = -.207642E-1
MEAN_MOTION_DDOT = 0

CCSDS_OMM_VERS = 2.0
CREATION_DATE  = 
ORIGINATOR     = 

OBJECT_NAME    = STARLINK-35446
OBJECT_ID      = 2025-259L
CENTER_NAME    = EARTH
REF_FRAME      = TEME
TIME_SYSTEM    = UTC
MEAN_ELEMENT_THEORY = SGP/SGP4

EPOCH          = 2025-11-30T14:00:01.999872
MEAN_MOTION    = 15.57298509
ECCENTRICITY   = .00017231
INCLINATION    = 42.9990
RA_OF_ASC_NODE = 118.4374
ARG_OF_PERICENTER = 270.6102
MEAN_ANOMALY   = 88.9226

EPHEMERIS_TYPE = 0
CLASSIFICATION_TYPE = U
NORAD_CAT_ID   = 66432
ELEMENT_SET_NO = 999
REV_AT_EPOCH   = 432
BSTAR          = -.31105182E-1
MEAN_MOTION_DOT = -.2079028E-1
MEAN_MOTION_DDOT = 0

CCSDS_OMM_VERS = 2.0
CREATION_DATE  = 
ORIGINATOR     = 

OBJECT_NAME    = STARLINK-35457
OBJECT_ID      = 2025-259M
CENTER_NAME    = EARTH
REF_FRAME      = TEME
TIME_SYSTEM    = UTC
MEAN_ELEMENT_THEORY = SGP/SGP4

EPOCH          = 2025-11-30T14:00:01.999872
MEAN_MOTION    = 15.57296593
ECCENTRICITY   = .00016944
INCLINATION    = 42.9991
RA_OF_ASC_NODE = 118.4343
ARG_OF_PERICENTER = 267.3639
MEAN_ANOMALY   = 94.0868

EPHEMERIS_TYPE = 0
CLASSIFICATION_TYPE = U
NORAD_CAT_ID   = 66433
ELEMENT_SET_NO = 999
REV_AT_EPOCH   = 432
BSTAR          = -.31042478E-1
MEAN_MOTION_DOT = -.2075136E-1
MEAN_MOTION_DDOT = 0

CCSDS_OMM_VERS = 2.0
CREATION_DATE  = 
ORIGINATOR     = 

OBJECT_NAME    = STARLINK-35389
OBJECT_ID      = 2025-259N
CENTER_NAME    = EARTH
REF_FRAME      = TEME
TIME_SYSTEM    = UTC
MEAN_ELEMENT_THEORY = SGP/SGP4

EPOCH          = 2025-11-30T14:00:01.999872
MEAN_MOTION    = 15.57300620
ECCENTRICITY   = .00016065
INCLINATION    = 42.9993
RA_OF_ASC_NODE = 118.4295
ARG_OF_PERICENTER = 272.6793
MEAN_ANOMALY   = 90.6884

EPHEMERIS_TYPE = 0
CLASSIFICATION_TYPE = U
NORAD_CAT_ID   = 66434
ELEMENT_SET_NO = 999
REV_AT_EPOCH   = 432
BSTAR          = -.3121116E-1
MEAN_MOTION_DOT = -.2085408E-1
MEAN_MOTION_DDOT = 0

CCSDS_OMM_VERS = 2.0
CREATION_DATE  = 
ORIGINATOR     = 

OBJECT_NAME    = STARLINK-35502
OBJECT_ID      = 2025-259P
CENTER_NAME    = EARTH
REF_FRAME      = TEME
TIME_SYSTEM    = UTC
MEAN_ELEMENT_THEORY = SGP/SGP4

EPOCH          = 2025-11-30T14:00:01.999872
MEAN_MOTION    = 15.57301541
ECCENTRICITY   = .00016675
INCLINATION    = 42.9990
RA_OF_ASC_NODE = 118.4256
ARG_OF_PERICENTER = 270.7577
MEAN_ANOMALY   = 94.5269

EPHEMERIS_TYPE = 0
CLASSIFICATION_TYPE = U
NORAD_CAT_ID   = 66435
ELEMENT_SET_NO = 999
REV_AT_EPOCH   = 432
BSTAR          = -.31218923E-1
MEAN_MOTION_DOT = -.2085978E-1
MEAN_MOTION_DDOT = 0

CCSDS_OMM_VERS = 2.0
CREATION_DATE  = 
ORIGINATOR     = 

OBJECT_NAME    = STARLINK-35501
OBJECT_ID      = 2025-259Q
CENTER_NAME    = EARTH
REF_FRAME      = TEME
TIME_SYSTEM    = UTC
MEAN_ELEMENT_THEORY = SGP/SGP4

EPOCH          = 2025-11-30T14:00:01.999872
MEAN_MOTION    = 15.57294569
ECCENTRICITY   = .0001714
INCLINATION    = 42.9990
RA_OF_ASC_NODE = 118.4151
ARG_OF_PERICENTER = 272.2737
MEAN_ANOMALY   = 96.8467

EPHEMERIS_TYPE = 0
CLASSIFICATION_TYPE = U
NORAD_CAT_ID   = 66436
ELEMENT_SET_NO = 999
REV_AT_EPOCH   = 432
BSTAR          = -.31022193E-1
MEAN_MOTION_DOT = -.2073799E-1
MEAN_MOTION_DDOT = 0

CCSDS_OMM_VERS = 2.0
CREATION_DATE  = 
ORIGINATOR     = 

OBJECT_NAME    = STARLINK-35474
OBJECT_ID      = 2025-259R
CENTER_NAME    = EARTH
REF_FRAME      = TEME
TIME_SYSTEM    = UTC
MEAN_ELEMENT_THEORY = SGP/SGP4

EPOCH          = 2025-11-30T14:00:01.999872
MEAN_MOTION    = 15.57289825
ECCENTRICITY   = .00017219
INCLINATION    = 42.9988
RA_OF_ASC_NODE = 118.4102
ARG_OF_PERICENTER = 271.3405
MEAN_ANOMALY   = 99.6991

EPHEMERIS_TYPE = 0
CLASSIFICATION_TYPE = U
NORAD_CAT_ID   = 66437
ELEMENT_SET_NO = 999
REV_AT_EPOCH   = 432
BSTAR          = -.30899123E-1
MEAN_MOTION_DOT = -.2066133E-1
MEAN_MOTION_DDOT = 0

CCSDS_OMM_VERS = 2.0
CREATION_DATE  = 
ORIGINATOR     = 

OBJECT_NAME    = STARLINK-34681
OBJECT_ID      = 2025-259S
CENTER_NAME    = EARTH
REF_FRAME      = TEME
TIME_SYSTEM    = UTC
MEAN_ELEMENT_THEORY = SGP/SGP4

EPOCH          = 2025-11-30T14:00:01.999872
MEAN_MOTION    = 15.57293084
ECCENTRICITY   = .00016281
INCLINATION    = 42.9988
RA_OF_ASC_NODE = 118.4055
ARG_OF_PERICENTER = 269.0471
MEAN_ANOMALY   = 103.9066

EPHEMERIS_TYPE = 0
CLASSIFICATION_TYPE = U
NORAD_CAT_ID   = 66438
ELEMENT_SET_NO = 999
REV_AT_EPOCH   = 421
BSTAR          = -.30920064E-1
MEAN_MOTION_DOT = -.2067546E-1
MEAN_MOTION_DDOT = 0

CCSDS_OMM_VERS = 2.0
CREATION_DATE  = 
ORIGINATOR     = 

OBJECT_NAME    = STARLINK-35327
OBJECT_ID      = 2025-259T
CENTER_NAME    = EARTH
REF_FRAME      = TEME
TIME_SYSTEM    = UTC
MEAN_ELEMENT_THEORY = SGP/SGP4

EPOCH          = 2025-11-30T14:00:01.999872
MEAN_MOTION    = 15.57296544
ECCENTRICITY   = .00016183
INCLINATION    = 42.9991
RA_OF_ASC_NODE = 118.4216
ARG_OF_PERICENTER = 273.5009
MEAN_ANOMALY   = 93.7022

EPHEMERIS_TYPE = 0
CLASSIFICATION_TYPE = U
NORAD_CAT_ID   = 66439
ELEMENT_SET_NO = 999
REV_AT_EPOCH   = 432
BSTAR          = -.31077304E-1
MEAN_MOTION_DOT = -.2077157E-1
MEAN_MOTION_DDOT = 0

