STARLINK-35610          
1 66428U 25259G   25334.58335648 -.02091865  00000+0 -31315-1 0  9994
2 66428  42.9991 118.4584 0001657 269.4805  82.3852 15.57303637  4323
STARLINK-35533          
1 66429U 25259H   25334.58335648 -.02086958  00000+0 -31235-1 0  9993
2 66429  42.9989 118.4522 0001626 270.8803  82.9008 15.57302196  4321
STARLINK-35470          
1 66430U 25259J   25334.58335648 -.02075156  00000+0 -31047-1 0  9994
2 66430  42.9988 118.4489 0001694 269.7494  85.9540 15.57293299  4329
STARLINK-35439          
1 66431U 25259K   25334.58335648 -.02076420  00000+0 -31065-1 0  9990
2 66431  42.9990 118.4429 0001708 270.8692  86.7491 15.57295423  4321
STARLINK-35446          
1 66432U 25259L   25334.58335648 -.02079028  00000+0 -31105-1 0  9993
2 66432  42.9990 118.4374 0001723 270.6102  88.9226 15.57298509  4320
STARLINK-35457          
1 66433U 25259M   25334.58335648 -.02075136  00000+0 -31042-1 0  9990
2 66433  42.9991 118.4343 0001694 267.3639  94.0868 15.57296593  4324
STARLINK-35389          
1 66434U 25259N   25334.58335648 -.02085408  00000+0 -31211-1 0  9992
2 66434  42.9993 118.4295 0001606 272.6793  90.6884 15.57300620  4323
STARLINK-35502          
1 66435U 25259P   25334.58335648 -.02085978  00000+0 -31219-1 0  9993
2 66435  42.9990 118.4256 0001667 270.7577  94.5269 15.57301541  4327
STARLINK-35501          
1 66436U 25259Q   25334.58335648 -.02073799  00000+0 -31022-1 0  9994
2 66436  42.9990 118.4151 0001714 272.2737  96.8467 15.57294569  4326
STARLINK-35474          
1 66437U 25259R   25334.58335648 -.02066133  00000+0 -30899-1 0  9990
2 66437  42.9988 118.4102 0001721 271.3405  99.6991 15.57289825  4322
STARLINK-34681          
1 66438U 25259S   25334.58335648 -.02067546  00000+0 -30920-1 0  9995
2 66438  42.9988 118.4055 0001628 269.0471 103.9066 15.57293084  4215
STARLINK-35327          
1 66439U 25259T   25334.58335648 -.02077157  00000+0 -31077-1 0  9999
2 66439  42.9991 118.4216 0001618 273.5009  93.7022 15.57296544  4329
